id,category,satellite_name,tle_line1,tle_line2,inclination,eccentricity,period,perigee,apogee,epoch,raan,arg_perigee,mean_anomaly,mean_motion,semi_major_axis,velocity,orbit_type,satellite_age,bstar,rev_num,norad_number,ephemeris_type,intl_designator
2804,active,ONEWEB-0195,1 48240U 21031AG  25017.58804567 -.00000108  00000+0 -32522-3 0  9990,2 48240  87.8984  32.2023 0002171  98.5286 261.6090 13.14501736180414,87.8984,0.0002171,109.5472117352913,1204.2849755760772,1207.5779186104037,2025-01-17 14:06:47.145888,32.2023,98.5286,261.609,13.14501736,7583.93144709324,7.249727596015475,LEO,2,-0.00032522000000000003,18041,48240,0,21031AG
2768,active,STARLINK-2488,1 48145U 21027BF  25017.58591748  .00003426  00000+0  24883-3 0  9998,2 48145  53.0542 219.5795 0001321  90.1102 270.0038 15.06391267209989,53.0542,0.0001321,95.59269437798726,546.4604813745718,548.2901655350288,2025-01-17 14:03:43.270272,219.5795,90.1102,270.0038,15.06391267,6925.3753234548,7.586600761730634,LEO,2,0.00024883,20998,48145,0,21027BF
2771,active,STARLINK-2493,1 48150U 21027BL  25017.56747263  .00000797  00000+0  72400-4 0  9994,2 48150  53.0543 219.6613 0001510  96.4535 263.6626 15.06400533209983,53.0543,0.000151,95.59210637905423,546.3011969849449,548.3926517561049,2025-01-17 13:37:09.635232,219.66130000000004,96.4535,263.6626,15.06400533,6925.346924370525,7.586616317073628,LEO,2,7.24e-05,20998,48150,0,21027BL
1758,active,AEHF-6 (USA 298),1 45465U 20022B   25016.40602514 -.00000295  00000+0  00000+0 0  9991,2 45465   3.7199 298.1957 0049451   6.4169  95.2428  1.00265806 17809,3.7199,0.0049451,1436.1825406360372,35579.891070158665,35996.92528029328,2025-01-16 09:44:40.572096,298.1957,6.4169,1.00265806,1.00265806,42166.40817522597,3.07457848389505,GEO,3,0,1780,45465,0,20022B
1830,active,STARLINK-1408,1 45688U 20035AH  25017.58334491  .00173827  00000+0  84970-3 0  9991,2 45688  53.0655 343.6690 0001964 126.0330 238.8487 15.81297716  6073,53.0655,0.0001964,91.06444570365774,325.58995843506364,328.2236458269417,2025-01-17 14:00:01.000224,343.66900000000004,126.033,15.81297716,15.81297716,6704.906802131002,7.710321992231682,LEO,2,0.0008497,607,45688,0,20035AH
2828,active,STARLINK-2562,1 48288U 21036N   25017.59236788 -.00001365  00000+0 -72770-4 0  9998,2 48288  53.0556 149.6263 0001666 113.0298 247.0867 15.06391068205594,53.0556,0.0001666,95.59270700614643,546.2221657366008,548.5297009975984,2025-01-17 14:13:00.584832,149.6263,113.02980000000001,247.0867,15.06391068,6925.3759333671,7.586600427657707,LEO,2,-7.277000000000001e-05,20559,48288,0,21036N
2827,active,STARLINK-2566,1 48287U 21036M   25017.58866726  .00001898  00000+0  14632-3 0  9998,2 48287  53.0550 149.5651 0001220  99.9693 260.1434 15.06391577205595,53.055,0.000122,95.59267470598716,546.5294776668843,548.2192690139791,2025-01-17 14:07:40.851264,149.5651,99.9693,260.1434,15.06391577,6925.374373340432,7.586601282145686,LEO,2,0.00014632000000000002,20559,48287,0,21036M
1887,active,BEIDOU-3 G3,1 45807U 20040A   25017.59627304 -.00000349  00000+0  00000+0 0  9996,2 45807   1.2124  59.2948 0003684 305.9520  77.2095  1.00272344 16907,1.2124,0.0003684,1436.0888980514906,35771.04182440285,35802.108683449944,2025-01-17 14:18:37.990656,59.2948,305.952,1.00272344,1.00272344,42164.5752539264,3.074645310124337,GEO,2,0,1690,45807,0,20040A
2815,active,LEMUR-2-SPECIAL-K,1 48273U 21034F   25017.16528853  .00024652  00000+0  14256-2 0  9995,2 48273  97.6239  86.7442 0000943 352.2430   7.8786 15.12257686202720,97.6239,9.43e-05,95.22186683731624,528.8021963460951,530.1049420892496,2025-01-17 03:58:00.928992,86.7442,352.243,7.8786,15.12257686,6907.453569217672,7.596436304958312,LEO,2,0.0014256,20272,48273,0,21034F
2812,active,AII-BRAVO,1 48270U 21034C   25017.16261862  .00007356  00000+0  64306-3 0  9990,2 48270  97.6265  79.0608 0003645 167.5746 192.5567 14.97041618202237,97.6265,0.0003645,96.18971060562725,573.6451645389589,578.7147617320852,2025-01-17 03:54:10.248768,79.0608,167.5746,192.5567,14.97041618,6954.179963135522,7.570872375147719,LEO,2,0.00064306,20223,48270,0,21034C
1933,active,STARLINK-1563,1 46078U 20055BD  25017.58334491  .01189245  00000+0  15674-1 0  9992,2 46078  53.0555 160.8119 0001568  74.8603 267.6426 15.55364975  5732,53.0555,0.0001568,92.58277144886846,400.1659164655566,402.29188264845834,2025-01-17 14:00:01.000224,160.8119,74.8603,15.55364975,15.55364975,6779.228899557007,7.6679405806490095,LEO,2,0.015674,573,46078,0,20055BD
1957,active,STARLINK-1637,1 46133U 20057S   25017.58334491  .00233412  00000+0  15108-2 0  9994,2 46133  53.0413 319.5334 0011339 103.2726 178.1466 15.74767643  5830,53.0413,0.0011339,91.44206171627569,337.8057648759768,353.05315820886153,2025-01-17 14:00:01.000224,319.5334,103.2726,15.74767643,15.74767643,6723.42946154242,7.699693921618028,LEO,2,0.0015107999999999999,583,46133,0,20057S
2816,active,CSS (TIANHE),1 48274U 21035A   25017.61490803  .00017348  00000+0  22758-3 0  9991,2 48274  41.4637 216.7861 0003902 308.9013  51.1476 15.58136080212625,41.4637,0.0003902,92.41811536768984,390.5466076747325,395.8308433561251,2025-01-17 14:45:28.053792,216.7861,308.90130000000005,51.1476,15.5813608,6771.188725515429,7.672491722903893,LEO,2,0.00022758,21262,48274,0,21035A
2089,active,STARLINK-1694,1 46544U 20070N   25017.58334491  .00169099  00000+0  36430-2 0  9995,2 46544  53.0474 216.2491 0017967 145.8407 273.2947 15.43341445  5926,53.04740000000001,0.0017967,93.30404523672985,424.14935201996923,448.6361910051228,2025-01-17 14:00:01.000224,216.2491,145.8407,15.43341445,15.43341445,6814.392771512546,7.648130801954333,LEO,2,0.0036430000000000004,592,46544,0,20070N
2818,active,STARLINK-2569,1 48277U 21036B   25017.34816090  .00001121  00000+0  94179-4 0  9994,2 48277  53.0540  80.6486 0002015 103.3602 256.7612 15.06391299206543,53.054,0.0002015,95.5926923473288,545.97976227055,548.7706884863765,2025-01-17 08:21:21.10176,80.6486,103.3602,256.7612,15.06391299,6925.375225378463,7.5866008154509,LEO,2,9.417900000000001e-05,20654,48277,0,21036B
2114,active,STARLINK-1708,1 46580U 20070BA  25017.58334491  .00128649  00000+0  38751-2 0  9999,2 46580  53.0536 228.0775 0001200 103.4821 266.9317 15.33392532  5836,53.0536,0.00012,93.90941783978897,465.0150264285985,466.65754713742626,2025-01-17 14:00:01.000224,228.0775,103.4821,15.33392532,15.33392532,6843.836286783013,7.631661195617626,LEO,2,0.0038751000000000002,583,46580,0,20070BA
2164,active,STARLINK-1865,1 46741U 20074C   25017.58334491  .00211829  00000+0  13748-2 0  9994,2 46741  53.0455   4.2642 0010137  70.9440   8.7668 15.74786909  6018,53.045500000000004,0.0010137,91.44094301078546,338.5591401204674,352.19010983514727,2025-01-17 14:00:01.000224,4.2642,70.944,15.74786909,15.74786909,6723.374624977808,7.6997253213187635,LEO,2,0.0013748,601,46741,0,20074C
2820,active,STARLINK-2580,1 48279U 21036D   25017.44445972  .00000087  00000+0  24758-4 0  9990,2 48279  53.0563  95.2196 0001407 115.7335 244.3799 15.06388741206349,53.0563,0.0001407,95.59285467336085,546.4086639693141,548.3574667639077,2025-01-17 10:40:01.319808,95.2196,115.7335,244.3799,15.06388741,6925.383065366611,7.586596521184667,LEO,2,2.4758e-05,20634,48279,0,21036D
2192,active,STARLINK-1929,1 46788U 20074BB  25017.58334491  .00686996  20106-3  20425-2 0  9999,2 46788  53.0462 334.9305 0010593  97.9889  45.4979 15.91827709  5945,53.0462,0.0010593,90.46205138021001,290.234168244574,304.37647009376633,2025-01-17 14:00:01.000224,334.93050000000005,97.9889,15.91827709,15.91827709,6675.30531916917,7.727398701520972,LEO,2,0.0020425,594,46788,0,20074BB
2237,active,STARLINK-1869,1 47155U 20088AK  25017.58334491  .00177424  00000+0  13711-2 0  9991,2 47155  53.0410 350.0056 0010139  75.9473 305.6492 15.70797998  5955,53.041,0.0010139,91.67314968783148,349.92374865219426,363.58047898859877,2025-01-17 14:00:01.000224,350.0056,75.9473,15.70797998,15.70797998,6734.7521138203965,7.693218729284029,LEO,2,0.0013711,595,47155,0,20088AK
2821,active,STARLINK-2565,1 48280U 21036E   25017.57069846  .00000768  00000+0  70449-4 0  9992,2 48280  53.0557 164.6428 0001263  88.4335 271.6798 15.06391604205386,53.0557,0.0001263,95.59267299261978,546.4996158156482,548.2489653614521,2025-01-17 13:41:48.346944,164.6428,88.4335,271.6798,15.06391604,6925.37429058855,7.586601327472156,LEO,2,7.0449e-05,20538,48280,0,21036E
2823,active,STARLINK-2558,1 48282U 21036G   25017.60711045  .00001919  00000+0  14774-3 0  9990,2 48282  53.0555 149.4885 0001251  78.7047 281.4083 15.06383026205603,53.0555,0.0001251,95.59321733886823,546.5342136793497,548.2669489047894,2025-01-17 14:34:14.34288,149.4885,78.7047,281.4083,15.06383026,6925.40058129207,7.586586927057828,LEO,2,0.00014774000000000002,20560,48282,0,21036G
2303,active,TURKSAT 5A,1 47306U 21001A   25014.89424182  .00000153  00000+0  00000+0 0  9991,2 47306   0.0285  81.6579 0000219 235.9616 149.7741  1.00271179 14777,0.0285,2.19e-05,1436.1055832404245,35785.97843449428,35787.82525719513,2025-01-14 21:27:42.493248,81.6579,235.9616,1.00271179,1.00271179,42164.90184584471,3.0746334026348086,GEO,5,0,1477,47306,0,21001A
2809,active,ONEWEB-0217,1 48245U 21031AM  25017.59359004 -.00000149  00000+0 -43535-3 0  9998,2 48245  87.8985  32.1987 0001999  99.2818 260.8537 13.14501771180443,87.8985,0.0001999,109.54720881848093,1204.415284603745,1207.4473403424718,2025-01-17 14:14:46.179456,32.1987,99.2818,260.8537,13.14501771,7583.931312473109,7.249727660359365,LEO,2,-0.00043535000000000004,18044,48245,0,21031AM
1805,active,COSMOS 2546,1 45608U 20031A   25016.59588197  .00000140  00000+0  00000+0 0  9998,2 45608  63.1029 127.7252 6803200 264.8904  20.7371  2.00616922 34100,63.1029,0.68032,717.7859104029121,2111.307520452834,38243.975765663505,2025-01-16 14:18:04.202208,127.7252,264.8904,2.00616922,2.00616922,26555.64164305817,3.874275392707974,MEO,3,0,3410,45608,0,20031A
